[
    {
        "Altitude(m)": 571820.9576645457,
        "Argument of Periapsis(deg)": 0.033114955553567506,
        "Eccentricity": 0.0,
        "Inclination(deg)": 53.0,
        "Latitude(deg)": -53.08933853988648,
        "Longitude(deg)": 19.83710450799209,
        "Mean Anomaly(deg)": -87.72373566211205,
        "RAAN(deg)": 209.9507168426401,
        "Satellite Name": "Starlink Shell 1 937",
        "Satellite Number": 937,
        "Semi-Major Axis(m)": 6931778.249405717,
        "Time(s)": 950
    },
    {
        "Altitude(m)": 571806.339939025,
        "Argument of Periapsis(deg)": 0.03346353403307874,
        "Eccentricity": 0.0,
        "Inclination(deg)": 53.0,
        "Latitude(deg)": -53.051552727239866,
        "Longitude(deg)": 20.83073327829235,
        "Mean Anomaly(deg)": -87.09690445855527,
        "RAAN(deg)": 209.95019807256264,
        "Satellite Name": "Starlink Shell 1 937",
        "Satellite Number": 937,
        "Semi-Major Axis(m)": 6931778.249405717,
        "Time(s)": 960
    },
    {
        "Altitude(m)": 571788.2563478891,
        "Argument of Periapsis(deg)": 0.03381211251258998,
        "Eccentricity": 0.0,
        "Inclination(deg)": 53.0,
        "Latitude(deg)": -53.00478588752946,
        "Longitude(deg)": 21.82234203083677,
        "Mean Anomaly(deg)": -86.4700732549986,
        "RAAN(deg)": 209.94967930248515,
        "Satellite Name": "Starlink Shell 1 937",
        "Satellite Number": 937,
        "Semi-Major Axis(m)": 6931778.249405717,
        "Time(s)": 970
    },
    {
        "Altitude(m)": 571766.7140878486,
        "Argument of Periapsis(deg)": 0.034160690992101214,
        "Eccentricity": 0.0,
        "Inclination(deg)": 53.0,
        "Latitude(deg)": -52.94907227795231,
        "Longitude(deg)": 22.81151173401422,
        "Mean Anomaly(deg)": -85.84324205144196,
        "RAAN(deg)": 209.9491605324077,
        "Satellite Name": "Starlink Shell 1 937",
        "Satellite Number": 937,
        "Semi-Major Axis(m)": 6931778.249405717,
        "Time(s)": 980
    },
    {
        "Altitude(m)": 571741.72173562,
        "Argument of Periapsis(deg)": 0.034509269471612446,
        "Eccentricity": 0.0,
        "Inclination(deg)": 53.0,
        "Latitude(deg)": -52.88445248556536,
        "Longitude(deg)": 23.797830990300444,
        "Mean Anomaly(deg)": -85.21641084788521,
        "RAAN(deg)": 209.94864176233023,
        "Satellite Name": "Starlink Shell 1 937",
        "Satellite Number": 937,
        "Semi-Major Axis(m)": 6931778.249405717,
        "Time(s)": 990
    }
]